CCSDS_OMM_VERS = 2.0
CREATION_DATE  = 
ORIGINATOR     = 

OBJECT_NAME    = H-2A R/B
OBJECT_ID      = 2006-002B
CENTER_NAME    = EARTH
REF_FRAME      = TEME
TIME_SYSTEM    = UTC
MEAN_ELEMENT_THEORY = SGP/SGP4

EPOCH          = 2026-03-24T09:19:30.122112
MEAN_MOTION    = 15.16735733
ECCENTRICITY   = .0052301
INCLINATION    = 98.2441
RA_OF_ASC_NODE = 231.6820
ARG_OF_PERICENTER = 190.5744
MEAN_ANOMALY   = 169.4392

EPHEMERIS_TYPE = 0
CLASSIFICATION_TYPE = U
NORAD_CAT_ID   = 28932
ELEMENT_SET_NO = 999
REV_AT_EPOCH   = 9666
BSTAR          = .46267E-3
MEAN_MOTION_DOT = .932E-4
MEAN_MOTION_DDOT = 0

CCSDS_OMM_VERS = 2.0
CREATION_DATE  = 
ORIGINATOR     = 

OBJECT_NAME    = RESURS-DK 1
OBJECT_ID      = 2006-021A
CENTER_NAME    = EARTH
REF_FRAME      = TEME
TIME_SYSTEM    = UTC
MEAN_ELEMENT_THEORY = SGP/SGP4

EPOCH          = 2026-03-24T09:54:30.219264
MEAN_MOTION    = 15.12839433
ECCENTRICITY   = .0000756
INCLINATION    = 69.9339
RA_OF_ASC_NODE = 198.9368
ARG_OF_PERICENTER = 83.2080
MEAN_ANOMALY   = 276.9172

EPHEMERIS_TYPE = 0
CLASSIFICATION_TYPE = U
NORAD_CAT_ID   = 29228
ELEMENT_SET_NO = 999
REV_AT_EPOCH   = 8975
BSTAR          = .15075E-3
MEAN_MOTION_DOT = .2549E-4
MEAN_MOTION_DDOT = 0

CCSDS_OMM_VERS = 2.0
CREATION_DATE  = 
ORIGINATOR     = 

OBJECT_NAME    = CZ-4B R/B
OBJECT_ID      = 2006-046C
CENTER_NAME    = EARTH
REF_FRAME      = TEME
TIME_SYSTEM    = UTC
MEAN_ELEMENT_THEORY = SGP/SGP4

EPOCH          = 2026-03-24T09:14:08.555136
MEAN_MOTION    = 15.17049924
ECCENTRICITY   = .0032309
INCLINATION    = 97.5564
RA_OF_ASC_NODE = 128.2537
ARG_OF_PERICENTER = 214.2224
MEAN_ANOMALY   = 145.6927

EPHEMERIS_TYPE = 0
CLASSIFICATION_TYPE = U
NORAD_CAT_ID   = 29507
ELEMENT_SET_NO = 999
REV_AT_EPOCH   = 6227
BSTAR          = .23281E-3
MEAN_MOTION_DOT = .4597E-4
MEAN_MOTION_DDOT = 0

CCSDS_OMM_VERS = 2.0
CREATION_DATE  = 
ORIGINATOR     = 

OBJECT_NAME    = CZ-2C R/B
OBJECT_ID      = 2007-010B
CENTER_NAME    = EARTH
REF_FRAME      = TEME
TIME_SYSTEM    = UTC
MEAN_ELEMENT_THEORY = SGP/SGP4

EPOCH          = 2026-03-24T07:25:05.418336
MEAN_MOTION    = 14.20251257
ECCENTRICITY   = .0057928
INCLINATION    = 98.3994
RA_OF_ASC_NODE = 195.8562
ARG_OF_PERICENTER = 251.2653
MEAN_ANOMALY   = 108.2233

EPHEMERIS_TYPE = 0
CLASSIFICATION_TYPE = U
NORAD_CAT_ID   = 31114
ELEMENT_SET_NO = 999
REV_AT_EPOCH   = 98179
BSTAR          = .79936E-4
MEAN_MOTION_DOT = .132E-5
MEAN_MOTION_DDOT = 0

CCSDS_OMM_VERS = 2.0
CREATION_DATE  = 
ORIGINATOR     = 

OBJECT_NAME    = COSMO-SKYMED 1
OBJECT_ID      = 2007-023A
CENTER_NAME    = EARTH
REF_FRAME      = TEME
TIME_SYSTEM    = UTC
MEAN_ELEMENT_THEORY = SGP/SGP4

EPOCH          = 2026-03-24T12:10:33.095136
MEAN_MOTION    = 14.96641926
ECCENTRICITY   = .000104
INCLINATION    = 97.8880
RA_OF_ASC_NODE = 274.6602
ARG_OF_PERICENTER = 88.4618
MEAN_ANOMALY   = 271.6722

EPHEMERIS_TYPE = 0
CLASSIFICATION_TYPE = U
NORAD_CAT_ID   = 31598
ELEMENT_SET_NO = 999
REV_AT_EPOCH   = 1712
BSTAR          = .23479E-3
MEAN_MOTION_DOT = .2617E-4
MEAN_MOTION_DDOT = 0

CCSDS_OMM_VERS = 2.0
CREATION_DATE  = 
ORIGINATOR     = 

OBJECT_NAME    = COSMOS 2428
OBJECT_ID      = 2007-029A
CENTER_NAME    = EARTH
REF_FRAME      = TEME
TIME_SYSTEM    = UTC
MEAN_ELEMENT_THEORY = SGP/SGP4

EPOCH          = 2026-03-24T13:02:17.575008
MEAN_MOTION    = 14.12948013
ECCENTRICITY   = .0009633
INCLINATION    = 70.9441
RA_OF_ASC_NODE = 172.1690
ARG_OF_PERICENTER = 261.8574
MEAN_ANOMALY   = 98.1454

EPHEMERIS_TYPE = 0
CLASSIFICATION_TYPE = U
NORAD_CAT_ID   = 31792
ELEMENT_SET_NO = 999
REV_AT_EPOCH   = 96619
BSTAR          = .1756E-4
MEAN_MOTION_DOT = -.15E-6
MEAN_MOTION_DDOT = 0

CCSDS_OMM_VERS = 2.0
CREATION_DATE  = 
ORIGINATOR     = 

OBJECT_NAME    = SL-16 R/B
OBJECT_ID      = 2007-029B
CENTER_NAME    = EARTH
REF_FRAME      = TEME
TIME_SYSTEM    = UTC
MEAN_ELEMENT_THEORY = SGP/SGP4

EPOCH          = 2026-03-24T09:37:19.293600
MEAN_MOTION    = 14.14841997
ECCENTRICITY   = .0002529
INCLINATION    = 70.9755
RA_OF_ASC_NODE = 141.4622
ARG_OF_PERICENTER = 276.9613
MEAN_ANOMALY   = 93.8580

EPHEMERIS_TYPE = 0
CLASSIFICATION_TYPE = U
NORAD_CAT_ID   = 31793
ELEMENT_SET_NO = 999
REV_AT_EPOCH   = 96745
BSTAR          = .13199E-3
MEAN_MOTION_DOT = .207E-5
MEAN_MOTION_DDOT = 0

CCSDS_OMM_VERS = 2.0
CREATION_DATE  = 
ORIGINATOR     = 

OBJECT_NAME    = KORONAS-FOTON
OBJECT_ID      = 2009-003A
CENTER_NAME    = EARTH
REF_FRAME      = TEME
TIME_SYSTEM    = UTC
MEAN_ELEMENT_THEORY = SGP/SGP4

EPOCH          = 2026-03-24T13:05:32.430336
MEAN_MOTION    = 15.43705087
ECCENTRICITY   = .0011812
INCLINATION    = 82.4279
RA_OF_ASC_NODE = 260.4257
ARG_OF_PERICENTER = 101.5206
MEAN_ANOMALY   = 258.7369

EPHEMERIS_TYPE = 0
CLASSIFICATION_TYPE = U
NORAD_CAT_ID   = 33504
ELEMENT_SET_NO = 999
REV_AT_EPOCH   = 94803
BSTAR          = .29547E-3
MEAN_MOTION_DOT = .13406E-3
MEAN_MOTION_DDOT = 0

CCSDS_OMM_VERS = 2.0
CREATION_DATE  = 
ORIGINATOR     = 

OBJECT_NAME    = CZ-2C R/B
OBJECT_ID      = 2011-030B
CENTER_NAME    = EARTH
REF_FRAME      = TEME
TIME_SYSTEM    = UTC
MEAN_ELEMENT_THEORY = SGP/SGP4

EPOCH          = 2026-03-24T09:58:51.859200
MEAN_MOTION    = 14.81272777
ECCENTRICITY   = .0051295
INCLINATION    = 97.8570
RA_OF_ASC_NODE = 40.3870
ARG_OF_PERICENTER = 303.5053
MEAN_ANOMALY   = 171.5301

EPHEMERIS_TYPE = 0
CLASSIFICATION_TYPE = U
NORAD_CAT_ID   = 37731
ELEMENT_SET_NO = 999
REV_AT_EPOCH   = 79227
BSTAR          = .19688E-3
MEAN_MOTION_DOT = .1514E-4
MEAN_MOTION_DDOT = 0

CCSDS_OMM_VERS = 2.0
CREATION_DATE  = 
ORIGINATOR     = 

OBJECT_NAME    = H-2A R/B
OBJECT_ID      = 2012-025E
CENTER_NAME    = EARTH
REF_FRAME      = TEME
TIME_SYSTEM    = UTC
MEAN_ELEMENT_THEORY = SGP/SGP4

EPOCH          = 2026-03-24T09:13:09.588864
MEAN_MOTION    = 14.95266917
ECCENTRICITY   = .0042784
INCLINATION    = 98.4757
RA_OF_ASC_NODE = 51.6101
ARG_OF_PERICENTER = 264.4745
MEAN_ANOMALY   = 95.1592

EPHEMERIS_TYPE = 0
CLASSIFICATION_TYPE = U
NORAD_CAT_ID   = 38341
ELEMENT_SET_NO = 999
REV_AT_EPOCH   = 75041
BSTAR          = .3077E-3
MEAN_MOTION_DOT = .3379E-4
MEAN_MOTION_DDOT = 0

CCSDS_OMM_VERS = 2.0
CREATION_DATE  = 
ORIGINATOR     = 

OBJECT_NAME    = SHIJIAN-16 (SJ-16)
OBJECT_ID      = 2013-057A
CENTER_NAME    = EARTH
REF_FRAME      = TEME
TIME_SYSTEM    = UTC
MEAN_ELEMENT_THEORY = SGP/SGP4

EPOCH          = 2026-03-24T12:16:20.654688
MEAN_MOTION    = 14.92405904
ECCENTRICITY   = .0015203
INCLINATION    = 74.9728
RA_OF_ASC_NODE = 157.0309
ARG_OF_PERICENTER = 74.1427
MEAN_ANOMALY   = 286.1436

EPHEMERIS_TYPE = 0
CLASSIFICATION_TYPE = U
NORAD_CAT_ID   = 39358
ELEMENT_SET_NO = 999
REV_AT_EPOCH   = 67371
BSTAR          = .90458E-4
MEAN_MOTION_DOT = .899E-5
MEAN_MOTION_DDOT = 0

CCSDS_OMM_VERS = 2.0
CREATION_DATE  = 
ORIGINATOR     = 

OBJECT_NAME    = SL-4 R/B
OBJECT_ID      = 2014-021B
CENTER_NAME    = EARTH
REF_FRAME      = TEME
TIME_SYSTEM    = UTC
MEAN_ELEMENT_THEORY = SGP/SGP4

EPOCH          = 2026-03-24T11:52:26.775840
MEAN_MOTION    = 15.39670175
ECCENTRICITY   = .0096145
INCLINATION    = 51.6056
RA_OF_ASC_NODE = 265.0241
ARG_OF_PERICENTER = 156.9179
MEAN_ANOMALY   = 203.6169

EPHEMERIS_TYPE = 0
CLASSIFICATION_TYPE = U
NORAD_CAT_ID   = 39679
ELEMENT_SET_NO = 999
REV_AT_EPOCH   = 65855
BSTAR          = .3467E-3
MEAN_MOTION_DOT = .15939E-3
MEAN_MOTION_DDOT = 0

